{
  "norad_id": 41745,
  "name": "USA 271",
  "history": [
    {
      "epoch": "2026-03-27T20:33:19.661184",
      "apogee_km": 35823.743144846725,
      "perigee_km": 35759.16463335915,
      "latitude_deg": -3.7394747021540615,
      "longitude_deg": 140.72184576001018,
      "semi_major_axis_km": 42169.59088910294,
      "eccentricity": 0.0007657,
      "inclination_deg": 3.9613,
      "raan_deg": 78.2783,
      "arg_perigee_deg": 148.2417,
      "mean_anomaly_deg": 32.3797,
      "mean_motion_rev_day": 1.00254455
    }
  ]
}